STARLINK-32247          
1 60446U 24144X   26178.08969036  .00002618  00000+0  10044-3 0  9998
2 60446  53.1612  58.5513 0001254  97.0046 263.1098 15.30216104106240
STARLINK-32101          
1 60447U 24144Y   26178.37880914 -.00001760  00000+0 -40978-4 0  9997
2 60447  53.1610  65.4698 0001315 117.7151 242.3985 15.34390276106134
LEGION 3                
1 60452U 24146A   26178.47589676  .00003813  00000+0  20835-3 0  9995
2 60452  45.0023 335.3732 0008633 229.6963 130.3162 15.16025654103584
LEGION 4                
1 60453U 24146B   26178.41313687  .00004304  00000+0  23275-3 0  9994
2 60453  45.0020  67.6195 0012609   4.0643 356.0336 15.16108432102426
EOS-08                  
1 60454U 24147A   26178.53875916  .00040498  00000+0  70954-3 0  9997
2 60454  37.3820 351.7662 0004510 347.1984  12.8667 15.49637986104687
YAOGAN-43 01A           
1 60458U 24148A   26178.17983272  .00016920  00000+0  47036-3 0  9995
2 60458  35.0048  74.5778 0006308 301.5132  58.4970 15.35956111103986
YAOGAN-43 01B           
1 60459U 24148B   26178.41231762  .00013863  00000+0  38417-3 0  9999
2 60459  34.9931  68.4717 0009307 302.2162  57.7654 15.36059081104000
YAOGAN-43 01C           
1 60460U 24148C   26178.24681635  .00009465  00000+0  39525-3 0  9994
2 60460  34.9993  99.2291 0006852 286.8759  73.1204 15.22868879103673
YAOGAN-43 01D           
1 60461U 24148D   26178.43916119  .00007542  00000+0  25433-3 0  9991
2 60461  35.0059  83.3221 0003292 277.4301  82.6042 15.29984317103858
YAOGAN-43 01E           
1 60462U 24148E   26178.24379593  .00011305  00000+0  47095-3 0  9990
2 60462  34.9930  96.9258 0006458 304.2641  55.7461 15.22919653103690
YAOGAN-43 01F           
1 60463U 24148F   26178.14907640  .00015362  00000+0  47389-3 0  9993
2 60463  34.9917  84.6696 0008742 305.5310  54.4592 15.32683052103818
YAOGAN-43 01G           
1 60464U 24148G   26178.44948017  .00007571  00000+0  25548-3 0  9996
2 60464  35.0033  83.6139 0007039 244.2800 115.7190 15.29945363103853
YAOGAN-43 01H           
1 60465U 24148H   26178.19794476  .00007542  00000+0  27100-3 0  9991
2 60465  34.9905  93.7402 0008292 281.1323  78.8460 15.27890924103722
YAOGAN-43 01J           
1 60466U 24148J   26178.37514015  .00014589  00000+0  39727-3 0  9998
2 60466  34.9922  68.2906 0008342 344.8299  15.2169 15.36602771104007
TRANSPORTER-11 OBJECT A 
1 60468U 24149A   26178.46689160  .00009153  00000+0  28886-3 0  9990
2 60468  97.3737 258.3649 0003798 161.8629 198.2750 15.33069755103638
WARATAH SEED-1          
1 60469U 24149B   26178.20842482  .00013894  00000+0  39600-3 0  9994
2 60469  97.3694 258.7931 0002341 155.1819 204.9538 15.36188545103652
PHISAT 2                
1 60470U 24149C   26178.17713503  .00007556  00000+0  25333-3 0  9999
2 60470  97.3760 257.3380 0002029 154.2473 205.8870 15.31191002103522
LEMUR-2-TOMATOKECHUP    
1 60471U 24149D   26178.52989515  .00010671  00000+0  30431-3 0  9994
2 60471  97.3805 260.6035 0002321 156.0649 204.0703 15.36239523103754
CONNECTA IOT-1          
1 60472U 24149E   26178.47284796  .00004399  00000+0  18663-3 0  9991
2 60472  97.3762 254.5905 0001151 184.3590 175.7638 15.23616149103361
LOPEN                   
1 60473U 24149F   26178.46297757  .00016255  00000+0  40949-3 0  9998
2 60473  97.3785 261.9124 0001687 165.2071 194.9224 15.39975442103846
ROCK                    
1 60474U 24149G   26178.18967790  .00016340  00000+0  41182-3 0  9994
2 60474  97.3780 261.6519 0001973 167.5776 192.5519 15.39959445103804
CONNECTA IOT-3          
1 60475U 24149H   26178.49414160  .00004326  00000+0  18353-3 0  9992
2 60475  97.3738 254.3615 0002212 194.3375 165.7800 15.23628224103372
QUBE                    
1 60476U 24149J   26178.19682030  .00029526  00000+0  57200-3 0  9996
2 60476  97.3783 264.8253 0002554 167.4703 192.6611 15.47663610104017
WREN-1                  
1 60478U 24149L   26178.19454140  .00023970  00000+0  56437-3 0  9995
2 60478  97.3771 262.4140 0004055 207.8580 152.2451 15.41938533103864
TOMORROW-S1             
1 60479U 24149M   26178.18997611  .00008272  00000+0  26311-3 0  9996
2 60479  97.3756 258.6309 0002570 176.4150 183.7111 15.32855865103628
FLOCK 4BE-18            
1 60480U 24149N   26178.46376397  .00018423  00000+0  43112-3 0  9998
2 60480  97.3734 262.3022 0003832 196.1916 163.9210 15.42177845103896
FLOCK 4BE-7             
1 60481U 24149P   26178.48124950  .00021861  00000+0  53619-3 0  9990
2 60481  97.3764 261.6396 0003018 196.4674 163.6475 15.40724736103835
TOMORROW-S2             
1 60485U 24149T   26178.48138787  .00008527  00000+0  27079-3 0  9992
2 60485  97.3823 259.4201 0002139 200.5443 159.5714 15.32896668103665
FLOCK 4BE-36            
1 60486U 24149U   26178.17012797  .00016762  00000+0  38173-3 0  9998
2 60486  97.3750 262.7191 0003293 207.8232 152.2840 15.43016774103897
FLOCK 4BE-25            
1 60487U 24149V   26178.16618712  .00016105  00000+0  41767-3 0  9991
2 60487  97.3803 261.3849 0002314 184.6848 175.4376 15.39085913103774
